COSMOS 2251 DEB         
1 38197U 93036BSM 17345.74246549  .00000725  00000-0  23222-3 0  9998
2 38197  73.9541 357.3440 0238554 161.9451 199.0357 14.26398038437966
